0 SL-16 R/B
1 23343U 94074B   13282.10457566  .00000333  00000-0  56410-4 0  8166
2 23343 098.2164 276.7471 0008241 072.0566 338.9651 14.75791837 18064
0 SL-16 R/B
1 23343U 94074B   13283.48127284  .00000283  00000-0  49102-4 0  8174
2 23343 098.2163 278.1461 0008194 068.4529 092.3518 14.75793520 18269
0 SL-16 R/B
1 23343U 94074B   13285.64577139  .00000344  00000-0  57931-4 0  8191
2 23343 098.2161 280.3456 0008085 062.3132 071.2469 14.75794450 18587
0 SL-16 R/B
1 23343U 94074B   13286.98007904  .00000360  00000-0  60250-4 0  8205
2 23343 098.2161 281.7014 0008005 058.5759 319.7082 14.75795797 18784
0 SL-16 R/B
1 23343U 94074B   13288.06975984  .00000522  00000-0  84006-4 0  8214
2 23343 098.2163 282.8085 0007951 055.5788 348.5484 14.75797841 18940
0 SL-16 R/B
1 23343U 94074B   13289.08633559  .00000427  00000-0  70119-4 0  8221
2 23343 098.2163 283.8413 0007893 052.5805 349.2346 14.75798985 19090
0 SL-16 R/B
1 23343U 94074B   13290.11257348  .00000412  00000-0  67896-4 0  8238
2 23343 098.2165 284.8840 0007819 049.6288 041.1806 14.75799699 19246
0 SL-16 R/B
1 23343U 94074B   13291.48180115  .00000396  00000-0  65518-4 0  8247
2 23343 098.2168 286.2752 0007739 045.8101 115.1626 14.75801318 19446
0 SL-16 R/B
1 23343U 94074B   13292.50045093  .00000440  00000-0  71947-4 0  8250
2 23343 098.2170 287.3101 0007680 042.8726 126.8138 14.75801994 19597
0 SL-16 R/B
1 23343U 94074B   13293.77255100  .00000523  00000-0  84068-4 0  8263
2 23343 098.2171 288.6028 0007597 038.9561 045.1927 14.75802737 19786
0 SL-16 R/B
1 23343U 94074B   13295.48206759  .00000482  00000-0  78132-4 0  8279
2 23343 098.2171 290.3400 0007453 033.9020 127.2569 14.75805525 20038
